mindate,maxdate,name,city,country,id,latitude,longitude
1940-01-01,2023-04-23,"ALGER DAR EL BEIDA, AG",Algiers,Algeria,GHCND:AG000060390,36.7167,3.25
1966-02-07,2023-04-23,"ILLIZI TAKHAMALT, AG",Tamanrasset,Algeria,GHCND:AGM00060640,26.724,8.623
1960-04-01,2023-04-23,"LUANDA, AO",Luanda,Angola,GHCND:AO000066160,-8.85,13.233
1941-01-02,2023-04-23,"COTONOU, BN",Cotonou,Benin,GHCND:BN000005344,6.35,2.38
1973-01-03,2023-04-23,"PARAKOU, BN",Parakou,Benin,GHCND:BNM00065330,9.35,2.617
1973-01-01,2023-04-23,"KANDI, BN",Kandi,Benin,GHCND:BN000065306,11.133,2.933
1921-10-01,2023-04-23,"MAUN, BC",Maun,Botswana,GHCND:BC000068032,-19.983,23.417
1925-04-01,2016-05-09,"GABORONE, BC",Gaborone,Botswana,GHCND:BC005847300,-24.667,25.917
1922-01-01,2023-04-23,"GHANZI, BC",Ghanzi,Botswana,GHCND:BC008382520,-21.7,21.65
1973-01-01,2023-04-23,"OUAGADOUGOU, UV",Ouagadougou,Burkina Faso,GHCND:UVM00065503,12.353,-1.512
1967-01-01,2023-04-23,"OUAHIGOUYA, UV",Ouahigouya,Burkina Faso,GHCND:UV000005502,13.58,-2.43
1950-01-01,1989-12-31,"BUJUMBURA, BY",Bujumbura,Burundi,GHCND:BY000064390,-3.317,29.317
1973-01-11,2023-04-23,"GAROUA, CM",Garoua,Cameroon,GHCND:CMM00064860,9.336,13.37
1973-01-11,2023-04-23,"NGAOUNDERE, CM",Ngaoundéré,Cameroon,GHCND:CM000064870,7.35,13.567
1948-01-01,2023-04-23,"DOUALA, CM",Douala,Cameroon,GHCND:CM000004910,4.02,9.72
1973-01-01,2023-04-22,"PRAIA, CV",Praia,Cape Verde,GHCND:CVM00008589,14.917,-23.6
1973-02-06,2023-04-23,"BANGUI M POKO, CT",Bangui,Central African Republic,GHCND:CTM00064650,4.398,18.519
1951-03-01,1999-11-03,"BIRAO, CT",Birao,Central African Republic,GHCND:CT000004658,10.28,22.78
1950-01-01,2023-04-23,"NDJAMENA, CD",N'Djamena,Chad,GHCND:CD000004700,12.13,15.03
1950-01-01,2023-04-23,"ABECHE, CD",Abéché,Chad,GHCND:CD000004756,13.85,20.85
1947-03-01,2023-04-23,"BRAZZAVILLE, CF",Kinshasa,Democratic Republic of the Congo,GHCND:CF000004450,-4.25,15.25
1973-05-05,2023-04-23,"LUBUMBASHI INTERNATIONAL, CG",Lubumbashi,Democratic Republic of the Congo,GHCND:CGM00064360,-11.591,27.531
1947-01-01,1987-12-31,ASSAB,Djibouti,Djibouti,GHCND:ER000063043,13.067,42.717
1961-10-01,1966-12-31,"HELWAN, EG",Cairo,Egypt,GHCND:EGM00062378,29.867,31.333
1957-01-01,2023-04-23,"ALEXANDRIA INTERNATIONAL, EG",Alexandria,Egypt,GHCND:EGM00062318,31.184,29.949
2007-11-12,2023-04-23,"BATA RIO MUNI, EK",Bata,Equatorial Guinea,GHCND:EKM00064820,1.9,9.8
1996-05-01,2023-04-23,"MALABO, EK",Malabo,Equatorial Guinea,GHCND:EKM00064810,3.755,8.709
1943-01-01,2015-11-12,"ASMARA, ER",Asmara,Eritrea,GHCND:ER000063021,15.283,38.917
1947-01-01,1987-12-31,ASSAB,Assab,Eritrea,GHCND:ER000063043,13.067,42.717
1963-01-01,1988-12-31,"MAKALE, ET",Mek'ele,Ethiopia,GHCND:ET000063330,13.5,39.483
1957-02-13,2023-04-23,"ADDIS ABABA BOLE, ET",Addis Ababa,Ethiopia,GHCND:ET000063450,9.033,38.75
1973-02-09,2023-04-23,"LEON M BA, GB",Libreville,Gabon,GHCND:GBM00064500,0.459,9.412
1950-01-01,2023-04-23,"PORT GENTIL, GB",Port-Gentil,Gabon,GHCND:GB000004501,-0.72,8.78
1973-01-01,2023-04-23,"BANJUL INTERNATIONAL, GA",Banjul,The Gambia,GHCND:GAM00061701,13.338,-16.652
1973-03-20,2023-04-23,"KOFORIDUA, GH",Accra,Ghana,GHCND:GHM00065459,6.083,-0.25
1973-01-04,2023-04-23,"TAMALE, GH",Tamale,Ghana,GHCND:GHM00065418,9.557,-0.863
1973-01-04,2023-04-23,"KUMASI, GH",Kumasi,Ghana,GHCND:GHM00065442,6.715,-1.591
1940-01-01,2023-04-23,"CONAKRY AERO, GV",Conakry,Guinea,GHCND:GV000001832,9.57,-13.62
1944-10-01,2023-04-23,"KANKAN, GV",Kankan,Guinea,GHCND:GV000001829,10.38,-9.3
1973-01-02,2023-04-23,"BISSAU OSWALDO VIEIRA INTERNATIONAL, PU",Bissau,Guinea-Bissau,GHCND:PUM00061766,11.895,-15.654
1945-01-01,2023-04-23,"GAGNOA, IV",Gagnoa,Ivory Coast,GHCND:IV000005557,6.13,-5.95
1945-01-01,2023-04-23,"BOUAKE, IV",Bouaké,Ivory Coast,GHCND:IV000005555,7.68,-5.03
1973-01-01,2023-04-23,"ABIDJAN FELIX HOUPHOUET BOIGN, IV",Abidjan,Ivory Coast,GHCND:IVM00065578,5.261,-3.926
1973-01-03,2023-04-23,"ODIENNE, IV",Odienné,Ivory Coast,GHCND:IV000065528,9.5,-7.567
1957-01-01,2023-04-23,"MOMBASA, KE",Mombasa,Kenya,GHCND:KE000063820,-4.033,39.617
1957-01-01,2023-04-23,"JOMO KENYATTA INTERNATIONAL, KE",Nairobi,Kenya,GHCND:KE000063740,-1.317,36.917
1957-01-01,2023-04-23,"GARISSA, KE",Garissa,Kenya,GHCND:KE000063723,-0.467,39.633
1957-01-01,2023-04-23,"LODWAR, KE",Lodwar,Kenya,GHCND:KE000063612,3.117,35.617
1943-01-08,2014-07-13,"TRIPOLI AIRPORT, LY",Tripoli,Libya,GHCND:LYE00147744,32.67,13.15
1943-11-01,2023-04-23,"BENGHAZI BENINA, LY",Benghazi,Libya,GHCND:LYE00147747,32.08,20.27
1973-02-19,2023-04-23,"FIANARANTSOA, MA",Fianarantsoa,Madagascar,GHCND:MAM00067137,-21.442,47.112
1973-01-22,2023-04-23,"TOAMASINA, MA",Toamasina,Madagascar,GHCND:MA000067095,-18.117,49.4
1973-01-02,2023-04-23,"ANTSIRANANA, MA",Antananarivo,Madagascar,GHCND:MA000067009,-12.35,49.3
1973-01-02,2023-04-23,"ANTSIRANANA, MA",Antsiranana,Madagascar,GHCND:MA000067009,-12.35,49.3
1973-01-02,2023-04-23,"PHILIBERT TSIRANANA, MA",Mahajanga,Madagascar,GHCND:MAM00067027,-15.667,46.352
1973-01-03,2023-04-23,"TOLIARA, MA",Toliara,Madagascar,GHCND:MA000067161,-23.383,43.733
1955-07-01,1990-06-30,"CHITIPA, MI",Karonga,Malawi,GHCND:MI000067421,-9.7,33.267
1939-01-01,2023-04-23,"CHILEKA, MI",Blantyre,Malawi,GHCND:MI000067693,-15.683,34.967
1954-05-01,1990-06-30,"BOLERO, MI",Mzuzu,Malawi,GHCND:MI000067424,-10.967,33.733
1978-02-01,2023-04-23,"NARA KEIBANE, ML",Ségou,Mali,GHCND:MLM00061233,15.167,-7.283
1957-07-01,2021-05-07,"TOMBOUCTOU, ML",Timbuktu,Mali,GHCND:ML000061223,16.717,-3
1975-01-01,2023-04-23,"SENOU, ML",Bamako,Mali,GHCND:MLM00061291,12.534,-7.95
1957-07-01,2023-04-23,"NOUADHIBOU, MR",Nouadhibou,Mauritania,GHCND:MR000061415,20.933,-17.033
1945-01-01,2023-04-23,"NOUAKCHOTT, MR",Nouakchott,Mauritania,GHCND:MR000001442,18.12,-15.93
1957-01-07,2023-04-23,"BASSATINE, MO",Ifrane,Morocco,GHCND:MOM00060150,33.879,-5.515
1943-01-13,2023-04-23,"SALE, MO",Rabat,Morocco,GHCND:MOM00060135,34.051,-6.752
1943-01-19,2023-04-23,"MENARA, MO",Marrakesh,Morocco,GHCND:MOM00060230,31.607,-8.036
1965-09-13,2023-04-23,"OUARZAZATE, MO",Ouarzazate,Morocco,GHCND:MO000060265,30.93,-6.9
1973-01-02,2023-04-23,"MAPUTO, MZ",Maputo,Mozambique,GHCND:MZM00067341,-25.921,32.573
1940-01-01,2023-04-23,"NIAMEY AERO, NG",Niamey,Niger,GHCND:NG000001052,13.5,2.13
1973-02-06,2023-04-23,"MURTALA MUHAMMED, NI",Lagos,Nigeria,GHCND:NIM00065201,6.577,3.321
1973-01-05,2023-04-22,"YAKUBU GOWON, NI",Jos,Nigeria,GHCND:NIM00065134,9.64,8.869
1980-10-01,2023-04-23,"MAGARIA, NG",Kano,Nigeria,GHCND:NGM00061091,12.983,8.933
1938-12-01,2023-04-23,"BIRNI N KONNI, NG",Sokoto,Nigeria,GHCND:NG000001075,13.8,5.25
1947-03-01,2023-04-23,"BRAZZAVILLE, CF",Brazzaville,Republic of the Congo,GHCND:CF000004450,-4.25,15.25
1947-03-01,2023-04-23,"POINTE NOIRE, CF",Pointe-Noire,Republic of the Congo,GHCND:CF000004400,-4.82,11.9
1949-01-01,2023-04-23,"DOLISIE, CF",Dolisie,Republic of the Congo,GHCND:CF000004401,-4.18,12.67
1943-04-01,2023-04-23,"DAKAR YOFF, SG",Dakar,Senegal,GHCND:SG000061641,14.733,-17.5
1973-01-01,2023-04-23,"BANJUL INTERNATIONAL, GA",Thiès,Senegal,GHCND:GAM00061701,13.338,-16.652
1904-11-01,1997-11-30,"DURBAN ROODEPOORT DEEP GM, SF",Pretoria,South Africa,GHCND:SF004756110,-26.18,27.87
1877-12-01,2023-04-23,"MALMESBURY, SF",Cape Town,South Africa,GHCND:SF000414170,-33.467,18.717
1920-06-01,1997-11-30,"SCHIKFONTEIN, SF",Johannesburg,South Africa,GHCND:SF004393960,-26.6,28.23
1909-02-01,2023-04-23,"BLOEMFONTEIN AIRPOR, SF",Bloemfontein,South Africa,GHCND:SF002613650,-29.1,26.3
1951-05-11,2023-04-23,"UPINGTON AGR., SF",Upington,South Africa,GHCND:SF003174470,-28.45,21.25
1973-01-14,2023-04-23,"DURBAN INTERNATIONAL, SF",Durban,South Africa,GHCND:SFM00068588,-29.97,30.951
1957-07-01,2023-04-16,"JUBA, OD",Juba,South Sudan,GHCND:SU000062941,4.867,31.6
2022-04-01,2023-03-31,"WEATHER SERVICE OFFICE PALAU, OD",Wau,South Sudan,GHCND:PSC00914913,7.3014,28.1439
1957-01-20,2023-04-23,"LAS PALMAS DE GRAN CANARIA GAN, SP",Las Palmas de Gran Canaria,Spain,GHCND:SPE00120215,27.9225,-15.3892
1957-07-01,2019-04-14,"ABU HAMED, SU",Port Sudan,Sudan,GHCND:SU000062640,19.533,33.317
1942-11-01,2023-04-15,"KHARTOUM, SU",Khartoum,Sudan,GHCND:SU000062721,15.6,32.549
1957-01-01,2023-04-23,"DAR ES SALAAM AIRPORT, TZ",Dar es Salaam,Tanzania,GHCND:TZ000063894,-6.867,39.2
1957-01-01,2023-04-23,"ZANZIBAR, TZ",Zanzibar City,Tanzania,GHCND:TZM00063870,-6.222,39.225
1951-08-01,2023-04-23,"TABORA AIRPORT, TZ",Tabora,Tanzania,GHCND:TZ000063832,-5.083,32.833
1957-01-01,2023-04-23,"DODOMA, TZ",Dodoma,Tanzania,GHCND:TZ000063862,-6.167,35.767
1973-01-03,2023-04-23,"GNASSINGBE EYADEMA INTERNATIONAL, TO",Lomé,Togo,GHCND:TOM00065387,6.166,1.255
1973-01-04,2023-04-23,"MANGO SANSANNE, TO",Mango,Togo,GHCND:TOM00065352,10.367,0.467
1945-06-09,2023-04-23,"ANNABA, AG",Tunis,Tunisia,GHCND:AGM00060360,36.822,7.809
1887-01-01,2023-04-23,"GABES, TS",Gabès,Tunisia,GHCND:TS000060765,33.88,10.1
1950-01-01,1990-12-30,"NDOLA, ZA",Ndola,Zambia,GHCND:ZA000067561,-13,28.65
1957-06-01,1990-12-30,"KAFUE POLDER, ZA",Lusaka,Zambia,GHCND:ZA000067659,-15.767,27.917
1950-01-01,2022-11-11,"LIVINGSTONE, ZA",Livingstone,Zambia,GHCND:ZA000067743,-17.817,25.817
1956-07-01,2023-04-23,"HARARE KUTSAGA, ZI",Harare,Zimbabwe,GHCND:ZI000067775,-17.917,31.133
1963-02-08,1990-02-28,"BULAWAYO AIRPORT, ZI",Bulawayo,Zimbabwe,GHCND:ZI000067965,-20.017,28.617
1966-03-02,2021-08-30,"KABUL INTERNATIONAL, AF",Kabul,Afghanistan,GHCND:AFM00040948,34.566,69.212
1936-01-01,2017-08-28,"ALAT, AJ",Baku,Azerbaijan,GHCND:AJ000037923,39.967,49.4
1936-01-30,2023-04-23,"APARAN, AM",Yerevan,Armenia,GHCND:AM000037699,40.533,44.383
1944-03-19,2023-04-23,"BAHRAIN INT. AIRPORT, BA",Manama,Bahrain,GHCND:BA000041150,26.267,50.65
1945-02-28,2023-04-23,"TEJGAON, BG",Dhaka,Bangladesh,GHCND:BGM00041923,23.779,90.383
1982-01-10,2023-04-23,"RANGPUR, BG",Rangpur,Bangladesh,GHCND:BGM00041859,25.733,89.233
1982-01-12,2023-04-23,"SHAH AMANAT INTERNATIONAL, BG",Chittagong,Bangladesh,GHCND:BGM00041978,22.25,91.813
1950-01-12,2023-04-23,"PHNOM PENH INTERNATIONAL, CB",Phnom Penh,Cambodia,GHCND:CBM00048991,11.547,104.844
1945-10-31,2023-04-23,"BEIJING, CH",Beijing,China,GHCND:CHM00054511,39.933,116.283
1951-01-01,2023-04-23,"CHANGDE, CH",Changsha,China,GHCND:CHM00057662,29.05,111.683
1944-11-11,2023-04-23,"CHONGQING, CH",Chongqing,China,GHCND:CHM00057516,29.583,106.467
1945-11-30,2023-04-23,"GUANGZHOU, CH",Guangzhou,China,GHCND:CHM00059287,23.217,113.483
1952-01-01,2023-04-23,"ANDA, CH",Harbin,China,GHCND:CHM00050854,46.383,125.317
1952-01-01,2023-04-23,"HUILI, CH",Kunming,China,GHCND:CHM00056671,26.65,102.25
1955-01-01,2023-04-23,"GOLMUD, CH",Lhasa,China,GHCND:CHM00052818,36.417,94.9
1991-01-01,2023-04-23,"SHANGHAI, CH",Shanghai,China,GHCND:CHM00058362,31.4,121.467
1951-01-01,2023-04-23,"WU LU MU QI, CH",Ürümqi,China,GHCND:CHM00051463,43.8,87.65
1951-01-01,2023-04-23,"XIAN, CH",Xi'an,China,GHCND:CHM00057036,34.3,108.933
1951-01-01,2023-04-23,"YINCHUAN, CH",Yinchuan,China,GHCND:CHM00053614,38.467,106.2
1936-12-31,2023-04-23,BATUMI,Batumi,Georgia,GHCND:GG000037484,41.633,41.6
1959-01-01,2023-04-23,"GORI, GG",Tbilisi,Georgia,GHCND:GG000037531,41.983,44.117
1992-08-01,2000-03-31,"KING S PARK, CH",Hong Kong,China,GHCND:CHM00045004,22.333,114.167
1901-01-01,2022-03-07,"DARJEELING, IN",Gangtok,India,GHCND:IN024050100,27.05,88.267
1951-01-01,1970-12-31,"FARUKHNAGAR, IN",New Delhi,India,GHCND:IN006020701,28.45,76.83
1901-01-01,2023-04-23,"CALCUTTA ALIPORE, IN",Kolkata,India,GHCND:IN024140300,22.533,88.333
1949-10-01,2023-04-23,"BOMBAY SANTACRUZ, IN",Mumbai,India,GHCND:IN012070800,19.117,72.85
1973-01-12,2023-04-23,"JAKARTA OBSERVATORY, ID",Jakarta,Indonesia,GHCND:ID000096745,-6.183,106.833
1962-10-06,2023-04-23,"DENPASAR NGURAH RAI, ID",Denpasar,Indonesia,GHCND:IDM00097230,-8.749,115.167
1944-05-31,2023-04-23,"JAYAPURA SENTANI, ID",Jayapura,Indonesia,GHCND:ID000097690,-2.567,140.483
1958-04-01,2023-04-23,"HASANUDDIN, ID",Makassar,Indonesia,GHCND:IDM00097180,-5.062,119.554
1984-05-03,2023-04-23,"MEDAN BELAWAN, ID",Medan,Indonesia,GHCND:IDM00096033,3.8,98.7
1962-05-04,2023-04-23,"SULTAN MAHMUD BADARUDDIN II, ID",Palembang,Indonesia,GHCND:IDM00096221,-2.898,104.701
1973-01-13,2023-04-23,"SUPADIO, ID",Pontianak,Indonesia,GHCND:IDM00096581,-0.151,109.404
1949-05-16,2023-04-23,"SURABAYA PERAK, ID",Surabaya,Indonesia,GHCND:IDM00096933,-7.217,112.717
1943-11-01,2023-04-23,"TEHRAN MEHRABAD, IR",Tehran,Iran,GHCND:IR000407540,35.683,51.317
1973-01-06,2023-04-23,"AHWAZ, IR",Ahvaz,Iran,GHCND:IRM00040811,31.337,48.762
1951-01-01,2023-04-23,"TABRIZ, IR",Tabriz,Iran,GHCND:IR000040706,38.08,46.28
1962-06-01,2023-04-23,"BET DAGAN, IS",Tel Aviv,Israel,GHCND:ISE00105694,32,34.7994
1951-01-01,2023-04-23,"SAPPORO, JA",Sapporo,Japan,GHCND:JA000047412,43.067,141.333
1954-01-01,2023-04-23,"WAKAMATSU, JA",Niigata,Japan,GHCND:JA000047570,37.483,139.917
1951-01-01,2023-04-23,"MITO, JA",Tokyo,Japan,GHCND:JA000047629,36.383,140.467
1952-12-31,2023-04-23,"MAIZURU REGIONAL MET HQ, JA",Kyoto,Japan,GHCND:JA000047750,35.45,135.333
1951-01-01,2023-04-23,"IWAMI AIRPORT, JA",Hiroshima,Japan,GHCND:JA000047754,34.683,131.783
1951-01-01,2023-04-23,"FUKUOKA, JA",Fukuoka,Japan,GHCND:JA000047807,33.583,130.383
1961-01-01,2023-04-23,"NAHA, JA",Naha,Japan,GHCND:JA000047936,26.2,127.683
1915-05-01,2023-04-23,"ALMATY, KZ",Almaty,Kazakhstan,GHCND:KZ000036870,43.2331,76.9331
1881-01-01,2023-04-23,"ASTANA, KZ",Astana,Kazakhstan,GHCND:KZ000035188,51.1331,71.3667
1950-10-24,2023-04-23,"PYONGYANG INTERNATIONAL, KN",Pyongyang,North Korea,GHCND:KNM00047058,39.224,125.67
1949-01-01,2023-04-23,"INCHEON, KS",Seoul,South Korea,GHCND:KS000047112,37.467,126.633
1958-01-01,2023-04-23,"KUWAIT INTERNATIONA, KU",Kuwait City,Kuwait,GHCND:KU000405820,29.222,47.966
1936-01-01,2023-04-23,"BISHKEK, KG",Bishkek,Kyrgyzstan,GHCND:KG000038353,42.83,74.58
1950-06-22,2023-04-23,"WATTAY INTERNATIONAL, LA",Vientiane,Laos,GHCND:LAM00048940,17.988,102.563
1957-06-30,2023-04-23,"RAFIC HARIRI INTERNATIONAL, LE",Beirut,Lebanon,GHCND:LEM00040100,33.821,35.488
1949-04-01,2023-04-23,"SULTAN ABDUL AZIZ SHAH INTERNATIONAL, MY",Kuala Lumpur,Malaysia,GHCND:MYM00048647,3.131,101.549
1981-01-02,2023-04-23,MALE,Malé,Maldives,GHCND:MV000043555,4.2,73.533
1956-08-20,2023-04-23,"CHINGGIS KHAAN INTERNATIONAL, MG",Ulaanbaatar,Mongolia,GHCND:MGM00044292,47.843,106.767
1950-02-16,2023-04-23,"MANDALAY, BM",Mandalay,Myanmar,GHCND:BMM00048042,21.983,96.1
1954-05-17,2023-04-23,"YANGON INTERNATIONAL, BM",Yangon,Myanmar,GHCND:BMM00048097,16.907,96.133
1971-01-01,2023-04-23,"KATHMANDU AIRPORT, NP",Kathmandu,Nepal,GHCND:NP000444540,27.7,85.367
1983-01-01,2023-04-23,"SEEB INTERNATIONAL, MU",Muscat,Oman,GHCND:MUM00041256,23.593,58.284
1942-05-06,2023-04-23,"JINNAH INTERNATIONAL, PK",Karachi,Pakistan,GHCND:PKM00041780,24.907,67.161
1973-01-01,2023-04-23,"AMRITSAR, IN",Lahore,Pakistan,GHCND:INM00042071,31.71,74.797
1945-03-31,2023-04-23,NINOY AQUINO INTERN,Manila,Philippines,GHCND:RP000098429,14.517,121
1945-01-20,2023-04-23,"DAGUPAN, RP",Baguio,Philippines,GHCND:RPM00098325,16.083,120.35
1898-08-14,2023-04-23,ANADYR,Anadyr,Russia,GHCND:RSM00025563,64.7831,177.5667
1933-10-12,2023-04-23,DIKSON,Dikson,Russia,GHCND:RSM00020674,73.5,80.4
1882-01-01,2023-04-23,"IRKUTSK, RS",Irkutsk,Russia,GHCND:RSM00030710,52.2667,104.35
1936-01-01,2023-04-23,"KOLYVAN, RS",Novosibirsk,Russia,GHCND:RSM00029631,55.3,82.75
1894-01-01,2023-04-13,PETROPAVLOVSK KAMCHATSKIJ,Petropavlovsk- Kamchatsky,Russia,GHCND:RSM00032583,52.9831,158.65
1911-01-01,2023-04-23,"VLADIVOSTOK, RS",Vladivostok,Russia,GHCND:RSM00031960,43.1167,131.933
1948-01-02,2023-04-23,"POKROVSKAJA, RS",Yakutsk,Russia,GHCND:RSM00024856,61.483,129.15
1983-01-01,2023-04-23,"ABHA, SA",Abha,Saudi Arabia,GHCND:SAM00041112,18.24,42.657
1983-12-23,2023-04-23,"KING KHALED INTERNATIONAL, SA",Riyadh,Saudi Arabia,GHCND:SAM00040437,24.958,46.699
1988-07-07,2023-04-23,"BATAM HANG NADIM, ID",Singapore,Singapore,GHCND:IDM00096087,1.117,104.117
2009-08-21,2023-04-23,"KURUNEGALA, CE",Colombo,Sri Lanka,GHCND:CEM00043441,7.467,80.367
1973-01-01,2023-04-23,"DAMASCUS INTERNATIONAL, SY",Damascus,Syria,GHCND:SYM00040080,33.412,36.516
1940-01-01,2023-04-23,"ANZOBSKIJ PEREVAL, TI",Dushanbe,Tajikistan,GHCND:TI000038719,39.083,68.867
1951-01-01,2023-04-23,"BANGKOK METROPOLIS, TH",Bangkok,Thailand,GHCND:TH000048455,13.733,100.567
1943-01-01,2023-04-23,"CHIANG MAI, TH",Chiang Mai,Thailand,GHCND:TH000048327,18.783,98.983
1943-01-01,2023-04-23,SONGKHLA,Hat Yai,Thailand,GHCND:TH000048568,7.2,100.617
1951-01-01,2023-04-23,"PRACHIN BURI, TH",Nakhon Ratchasima,Thailand,GHCND:TH000048430,14.05,101.367
2002-12-31,2023-04-23,"ANKARA CENTRAL, TU",Ankara,Turkey,GHCND:TUM00017130,39.95,32.883
1950-05-01,2023-04-23,"ERZURUM, TU",Erzurum,Turkey,GHCND:TUM00017096,39.957,41.17
1950-01-15,2023-04-23,"IZMIR GUZELYALI, TU",İzmir,Turkey,GHCND:TUM00017220,38.433,27.167
1933-01-12,2023-04-23,"ASHGABAT, TX",Ashgabat,Turkmenistan,GHCND:TX000038880,37.9667,58.3331
1944-03-20,2023-04-23,"SHARJAH INTER. AIRP, AE",Dubai,United Arab Emirates,GHCND:AE000041196,25.333,55.517
1881-01-01,2023-04-23,"TASHKENT, UZ",Tashkent,Uzbekistan,GHCND:UZM00038457,41.27,69.2694
1966-01-03,1967-12-31,"PHAN RANG, VM",Da Lat,Vietnam,GHCND:VMW00041022,11.61667,108.95
1957-01-01,2023-04-23,"DANANG INTERNATIONAL, VM",Da Nang,Vietnam,GHCND:VMM00048855,16.044,108.199
1958-12-18,2023-04-23,"NOIBAI INTERNATIONAL, VM",Hanoi,Vietnam,GHCND:VMM00048820,21.221,105.807
1951-01-09,2023-04-23,"TAN SON HOA, VM",Ho Chi Minh City,Vietnam,GHCND:VM000048900,10.82,106.67
1973-02-05,2023-04-23,"TIRANA RINAS, AL",Tirana,Albania,GHCND:ALM00013615,41.415,19.721
1949-01-01,2023-04-23,"ST GIRONS, FR",Andorra la Vella,Andorra,GHCND:FRE00106205,43.0053,1.1067
1855-02-01,2023-04-23,"WIEN, AU",Vienna,Austria,GHCND:AU000005901,48.2331,16.35
1955-01-01,2023-04-23,"BORISOV, BO",Minsk,Belarus,GHCND:BOM00026759,54.267,28.5
1833-01-02,2023-04-23,"UCCLE, BE",Brussels,Belgium,GHCND:BE000006447,50.8,4.35
2001-07-05,2023-04-23,"MOSTAR, BK",Sarajevo,Bosnia and Herzegovina,GHCND:BKM00014648,43.35,17.8
1952-01-01,2023-04-23,"SOFIA, BU",Sofia,Bulgaria,GHCND:BUM00015614,42.695,23.406
1860-12-30,2023-04-23,"ZAGREB GRIC, HR",Zagreb,Croatia,GHCND:HR000142360,45.8167,15.9781
1947-12-31,2023-04-23,"SPLIT MARJAN, HR",Split,Croatia,GHCND:HRE00105217,43.5167,16.4331
1976-04-04,2023-04-23,"LARNACA, CY",Nicosia,Cyprus,GHCND:CY000176090,34.8831,33.6331
1906-05-01,2023-04-23,"MILESOVKA, EZ",Prague,Czech Republic,GHCND:EZ000011464,50.5544,13.9314
1880-01-01,2023-02-28,FALSTERBO,Copenhagen,Denmark,GHCND:SWE00137494,55.38,12.82
1936-01-01,2023-04-23,"TALLINN, EN",Tallinn,Estonia,GHCND:EN000026038,59.3831,24.5831
1952-01-01,2023-04-23,"VANTAA HELSINKI VANTAAN LENTOA, FI",Helsinki,Finland,GHCND:FIE00142080,60.3269,24.9603
2008-01-01,2023-02-28,"VARKAUS KOSULANNIEMI, FI",Kuopio,Finland,GHCND:FIE00144057,62.3217,27.9108
1957-12-10,2023-04-23,"OULUNSALO OULUN LENTOASEMA, FI",Oulu,Finland,GHCND:FIE00145622,64.9283,25.3506
1920-09-01,2023-04-23,"LYON ST EXUPERY, FR",Lyon,France,GHCND:FR069029001,45.7264,5.0778
1921-01-01,2023-04-23,"MARSEILLES MARIGNANE, FR",Marseille,France,GHCND:FR000007650,43.4378,5.2158
1921-03-01,2023-04-23,"ORLY, FR",Paris,France,GHCND:FRM00007149,48.7167,2.3842
1876-01-01,2023-02-28,"BERLIN DAHLEM, GM",Berlin,Germany,GHCND:GM000003319,52.4639,13.3017
1939-01-01,2023-02-28,"GIESSEN WETTENBERG, GM",Frankfurt,Germany,GHCND:GME00120982,50.6008,8.6506
1955-01-01,2023-04-23,"HELLINIKON, GR",Athens,Greece,GHCND:GR000016716,37.9,23.75
1955-01-01,2023-04-23,"HERAKLION, GR",Heraklion,Greece,GHCND:GR000016754,35.3331,25.1831
1964-01-03,2023-04-23,"MAKEDONIA, GR",Thessaloniki,Greece,GHCND:GRM00016622,40.52,22.971
1973-01-01,2023-04-23,"BUDAPEST PESTSZENTLORINC, HU",Budapest,Hungary,GHCND:HUM00012843,47.433,19.183
1941-09-01,2023-04-23,"REYKJAVIK, IC",Reykjavík,Iceland,GHCND:IC000004030,64.1269,-21.9025
1867-01-01,2023-04-23,"DUBLIN PHOENIX PARK, EI",Dublin,Ireland,GHCND:EI000003969,53.3639,-6.3192
1901-01-01,2023-04-23,"LUGANO, SZ",Milan,Italy,GHCND:SZ000009480,46,8.9667
1957-07-01,2023-04-23,"USTICA ISLAND, IT",Palermo,Italy,GHCND:ITM00016400,38.7,13.183
1951-01-01,2023-04-23,"ROMA CIAMPINO, IT",Rome,Italy,GHCND:IT000016239,41.7831,12.5831
1944-04-01,2023-04-23,"GRAZZANISE, IT",Napoli,Italy,GHCND:ITM00016253,41.061,14.082
1959-01-01,2023-04-23,"SKULTE, LG",Riga,Latvia,GHCND:LG000026326,57.317,24.417
1882-09-01,2023-04-23,"SAENTIS, SZ",Vaduz,Liechtenstein,GHCND:SZ000002220,47.25,9.35
1925-01-01,2023-04-23,"UKMERGE, LH",Vilnius,Lithuania,GHCND:LH000026634,55.25,24.767
1947-01-01,2023-04-23,"LUXEMBOURG AIRPORT, LU",Luxembourg City,Luxembourg,GHCND:LU000006590,49.6258,6.2033
2001-11-14,2023-04-23,"SKOPJE ZAJCEV RID, MK",Skopje,Macedonia,GHCND:MKM00013588,42.017,21.4
1956-01-01,2023-04-23,"LUQA, MT",Valletta,Malta,GHCND:MT000016597,35.85,14.4831
1886-11-01,2023-04-23,"KISINEV, MD",Chișinău,Moldova,GHCND:MD000033815,47.02,28.87
1942-07-01,2023-04-23,"NICE, FR",Monaco,Monaco,GHCND:FRE00104120,43.6489,7.2089
1982-04-01,2023-04-23,"NIKSIC, MJ",Podgorica,Montenegro,GHCND:MJM00013459,42.76,18.95
1883-04-30,2023-02-10,"HOORN, NL",Amsterdam,Netherlands,GHCND:NLE00100501,52.65,5.0667
1957-01-01,2023-04-04,"BERGEN FLORIDA, NO",Bergen,Norway,GHCND:NO000050540,60.3831,5.3331
1940-05-12,2023-04-23,"GARDERMOEN SOR, NO",Oslo,Norway,GHCND:NOE00109514,60.1881,11.0742
1920-07-01,2023-04-23,"TROMSO, NO",Tromsø,Norway,GHCND:NO000001026,69.6539,18.9281
1973-01-01,2023-04-23,"BALICE, PL",Cracow,Poland,GHCND:PLM00012566,50.078,19.785
1959-01-01,2023-04-23,"KYBARTAI, LH",Suwałki,Poland,GHCND:LH000026713,54.633,22.783
1952-01-02,2023-04-23,"OKECIE, PL",Warsaw,Poland,GHCND:PLM00012375,52.166,20.967
1939-05-26,2023-04-23,"STRACHOWICE, PL",Wrocław,Poland,GHCND:PLM00012424,51.103,16.886
1900-12-31,2022-11-14,"LISBOA GEOFISICA, PO",Lisbon,Portugal,GHCND:PO000008535,38.7167,-9.15
1940-12-31,2022-04-06,"PORTO, PO",Porto,Portugal,GHCND:PO000008546,41.1331,-8.6
1929-01-01,2023-04-23,"BUCURESTI BANEASA, RO",Bucharest,Romania,GHCND:ROE00108889,44.5167,26.0831
1881-01-01,2023-04-23,"ARHANGELSK, RS",Arkhangelsk,Russia,GHCND:RSM00022550,64.5,40.7331
1959-01-01,2023-04-01,"NOVO JERUSALIM, RS",Moscow,Russia,GHCND:RSM00027511,55.9,36.817
1936-01-01,2023-04-23,MURMANSK,Murmansk,Russia,GHCND:RSM00022113,68.9667,33.0497
1937-01-01,2023-03-29,"SAHTY, RS",Rostov-on-Don,Russia,GHCND:RSM00034635,47.7,40.267
1881-01-01,2023-04-23,"ST. PETERSBURG, RS",Saint Petersburg,Russia,GHCND:RSM00026063,59.9667,30.3
1936-01-01,2023-04-23,"KRASNAJA POLJANA, RS",Sochi,Russia,GHCND:RSM00037107,43.6,40.2
1973-01-01,2023-04-23,"CERVIA, IT",City of San Marino,San Marino,GHCND:ITM00016148,44.224,12.307
1935-12-31,2023-04-23,"BELGRADE OBSERVATORY, RB",Belgrade,Serbia,GHCND:RIE00100818,44.8,20.4667
1899-12-31,2023-04-23,"LJUBLJANA BEZIGRAD, SI",Ljubljana,Slovenia,GHCND:SIM00014015,46.0656,14.5169
1924-03-01,2023-04-23,"BARCELONA AEROPUERTO, SP",Barcelona,Spain,GHCND:SP000008181,41.2928,2.0697
1946-01-01,2023-04-23,"NAVACERRADA, SP",Madrid,Spain,GHCND:SP000008215,40.7806,-4.0103
1951-01-01,2023-04-23,"SEVILLA SAN PABLO, SP",Seville,Spain,GHCND:SPE00120512,37.4167,-5.8792
1973-01-04,2023-04-23,CASTELLON,Valencia,Spain,GHCND:SPE00119999,39.95,0.0714
1879-10-31,2023-02-28,"LANDSORT, SW",Stockholm,Sweden,GHCND:SWE00138618,58.74,17.87
1901-01-01,2023-04-23,"ZUERICH FLUNTERN, SZ",Zürich,Switzerland,GHCND:SZ000003700,47.3831,8.5667
2014-02-18,2023-04-23,ISTANBUL BOLGE KARTAL,Istanbul,Turkey,GHCND:TUM00017064,40.9,29.15
1881-01-01,2023-04-23,"KIEV, UP",Kyiv,Ukraine,GHCND:UPM00033345,50.4,30.5331
1936-01-01,2023-04-23,"LVIV, UP",Lviv,Ukraine,GHCND:UPM00033393,49.8167,23.95
1894-01-01,2023-04-23,"ODESA, UP",Odessa,Ukraine,GHCND:UPM00033837,46.48,30.63
1973-01-01,2023-04-23,"LEUCHARS, UK",Edinburgh,United Kingdom,GHCND:UKM00003171,56.373,-2.868
1948-12-01,2023-04-23,"HEATHROW, UK",London,United Kingdom,GHCND:UKM00003772,51.478,-0.461
1957-09-01,1970-02-13,"ST JOHNS, AC",St. John's,Antigua and Barbuda,GHCND:ACW00011647,17.13333,-61.78333
1961-01-01,2023-04-23,"NASSAU AIRPORT NEW, BF",Nassau,The Bahamas,GHCND:BF000078073,25.05,-77.467
1943-09-17,2004-12-31,GRANTLEY ADAMS,Bridgetown,Barbados,GHCND:BB000078954,13.067,-59.483
1960-11-07,2023-04-23,"PHILIP S W GOLDSON INTERNATIONAL, BH",Belize City,Belize,GHCND:BHM00078583,17.539,-88.308
1941-12-03,2023-04-23,"L F WADE INTERNATIONAL AIRPORT KINDLEY FIELD, BD",Hamilton,Bermuda,GHCND:BDM00078016,32.3667,-64.6833
2007-09-01,2023-04-18,"LINDEN AGCM, CA",Calgary,Canada,GHCND:CA003023850,51.6167,-113.65
1946-03-01,2023-04-23,"CAMROSE, CA",Edmonton,Canada,GHCND:CA003011240,53.0333,-112.8167
2013-01-13,2023-04-23,"GJOA HAVEN, CA",Gjoa Haven,Canada,GHCND:CA002302337,68.6333,-95.85
2012-09-15,2023-04-23,"HALIFAX INTERNATIONAL A, CA",Halifax,Canada,GHCND:CA008202251,44.8833,-63.5167
2004-05-26,2023-04-23,"IQALUIT CLIMATE, CA",Iqaluit,Canada,GHCND:CA002402592,63.75,-68.55
1993-07-01,2023-04-23,"FUNDY PARK ALMA CS, CA",Moncton,Canada,GHCND:CA008101746,45.6,-64.95
1930-01-01,2023-04-23,"L ASSOMPTION, CA",Montreal,Canada,GHCND:CA007014160,45.8167,-73.4333
2008-11-21,2023-04-23,"BROCKVILLE CLIMATE, CA",Ottawa,Canada,GHCND:CA006100970,44.6333,-75.75
1892-03-01,2012-03-18,"SASKATOON DIEFENBAKER INTERNATIONAL A, CA",Saskatoon,Canada,GHCND:CA004057120,52.1667,-106.7167
1988-06-01,2019-07-31,"BUTLERVILLE, CA",St. John's,Canada,GHCND:CA008400QJK,47.5833,-53.3167
2000-08-23,2023-04-23,"EGBERT CS, CA",Toronto,Canada,GHCND:CA00611E001,44.2333,-79.7833
2007-11-27,2023-04-23,"NORTH COWICHAN, CA",Vancouver,Canada,GHCND:CA001015630,48.8167,-123.7167
1969-11-01,2023-04-21,"MARQUETTE, CA",Winnipeg,Canada,GHCND:CA005021695,50.0167,-97.8
1942-04-01,2023-04-23,"WHITEHORSE A, CA",Whitehorse,Canada,GHCND:CA002101300,60.7167,-135.0667
2013-01-17,2023-04-23,"YELLOWKNIFE A, CA",Yellowknife,Canada,GHCND:CA002204101,62.4667,-114.4333
1966-02-01,2023-04-23,"ROBERTS, CJ",George Town,Cayman Islands,GHCND:CJW00011813,19.3,-81.36667
1955-07-04,2023-04-23,"JUAN SANTAMARIA INTERNATIONAL, CS",San José,Costa Rica,GHCND:CSM00078762,9.994,-84.209
1973-01-02,2016-10-07,CASA BLANCA LA HABANA,Havana,Cuba,GHCND:CUM00078325,23.167,-82.35
1942-09-01,2004-12-31,"HATO, UC",Willemstad,Curaçao,GHCND:UCM00078988,12.189,-68.96
1996-05-04,2018-02-18,"TRINITE CARAVELLE, FR",Roseau,Dominica,GHCND:MBM00078922,14.767,-60.883
1943-11-02,2023-04-23,SANTO DOMINGO,Santo Domingo,Dominican Republic,GHCND:DRM00078486,18.433,-69.883
1958-01-01,2023-04-23,NUUK,Nuuk,Greenland,GHCND:GL000004250,64.1667,-51.75
1973-06-05,2023-04-23,"GOLOSON INTERNATIONAL, HO",La Ceiba,Honduras,GHCND:HOM00078705,15.742,-86.853
1957-07-01,2023-04-23,"TEGUCIGALPA, HO",Tegucigalpa,Honduras,GHCND:HO000078720,14.05,-87.217
1941-12-22,2023-04-23,"NORMAN MANLEY INTERNATIONAL, JM",Kingston,Jamaica,GHCND:JMM00078397,17.936,-76.788
1957-07-01,2012-12-31,BOCA DEL SALADO,Cabo San Lucas,Mexico,GHCND:MXN00003003,23.2833,-109.4333
1949-01-11,2023-04-23,"TORREON INTERNATIONAL, MX",Chihuahua,Mexico,GHCND:MXM00076382,25.568,-103.411
1954-01-01,2023-04-12,"GUADALAJARA, MX",Guadalajara,Mexico,GHCND:MXM00076612,20.72,-103.38
1955-04-01,2023-04-23,"CUERNAVACA, MX",La Paz,Mexico,GHCND:MXM00076726,18.883,-99.233
1991-11-16,2023-04-12,"EJIDO NUEVO LEON OBS, MX",Mexicali,Mexico,GHCND:MXM00076040,32.4,-115.1833
1955-04-01,2023-04-23,"CUERNAVACA, MX",Mexico City,Mexico,GHCND:MXM00076726,18.883,-99.233
1977-01-10,2023-04-11,"MONTERREY CITY, MX",Monterrey,Mexico,GHCND:MXM00076393,25.733,-100.3
2008-10-15,2023-04-13,"SAN MARCOS 2.5 ENE, CA US",Tijuana,Mexico,GHCND:US1CASD0001,33.1472,-117.1316
1955-04-01,2023-04-23,"CUERNAVACA, MX",Toluca,Mexico,GHCND:MXM00076726,18.883,-99.233
1975-04-04,2023-04-23,"HERMANOS SERDAN INTERNATIONAL, MX",Veracruz,Mexico,GHCND:MXM00076685,19.158,-98.371
1975-09-06,2023-04-12,"VILLAHERMOSA TAB., MX",Villahermosa,Mexico,GHCND:MXM00076743,17.983,-92.933
1942-10-01,2023-04-23,"MANAGUA INTERNATIONAL, NU",Managua,Nicaragua,GHCND:NUM00078741,12.141,-86.168
1979-01-01,1993-12-31,"CHEPO, PM",Panama City,Panama,GHCND:PM000148001,9.1,-79.08
1956-01-03,2023-04-23,"SAN SALVADOR ILOPAN, ES",San Salvador,El Salvador,GHCND:ES003800510,13.7,-89.117
2022-04-01,2023-04-23,"FAJARDO 1.1 S, US",San Juan,Puerto Rico,GHCND:RQ1PRFJ0005,18.318836,-65.6606
1977-07-01,2023-04-23,"ST PIERRE, FR",Saint-Pierre,Saint Pierre and Miquelon,GHCND:SBM00071805,46.763,-56.176
2005-03-13,2023-04-23,"ALBUQUERQUE 3.3 WNW, NM US",Albuquerque,United States,GHCND:US1NMBR0002,35.13847,-106.6769
2009-07-26,2023-04-22,"EAGLE RIVER 7.8 SE, AK US",Anchorage,United States,GHCND:US1AKAB0038,61.22724,-149.44008
2021-11-09,2023-04-23,"EUHARLEE 1.1 NNE, GA US",Atlanta,United States,GHCND:US1GABT0007,34.15862,-84.927225
2009-09-28,2023-04-23,"SALADO 1.5 S, TX US",Austin,United States,GHCND:US1TXBEL010,30.929356,-97.523966
2011-06-15,2023-04-23,"WASHINGTON 5.1 NW, DC US",Baltimore,United States,GHCND:US1DCDC0014,38.958091,-77.08173
2009-04-02,2023-04-23,"BOISE 2.1 NNE, ID US",Boise,United States,GHCND:US1IDAD0009,43.632278,-116.2045
2003-03-18,2023-04-23,"REHOBOTH 2.1 N, MA US",Boston,United States,GHCND:US1MABR0002,41.863021,-71.272862
2020-01-01,2023-04-23,"PEACHLAND 2.7 SW, NC US",Charlotte,United States,GHCND:US1NCAN0008,34.96177,-80.29274
2006-12-19,2023-04-23,"BRIDGEVIEW 1.3 NNW, IL US",Chicago,United States,GHCND:US1ILCK0012,41.755015,-87.817285
2002-02-01,2023-04-23,"SUNBURY 5.7 ESE, OH US",Columbus,United States,GHCND:US1OHDL0010,40.200143,-82.773205
2007-06-24,2023-04-23,"PLANO 2.4 WSW, TX US",Dallas,United States,GHCND:US1TXCLL008,33.028,-96.783
2003-07-12,2023-04-22,"THORNTON 2.3 SSE, CO US",Denver,United States,GHCND:US1COAD0022,39.8612,-104.938156
1988-07-01,2023-04-23,"AMHERSTBURG, CA",Detroit,United States,GHCND:CA006130257,42.1,-83.1
2005-03-15,2023-04-21,"LAS CRUCES 3.9 NNE, NM US",El Paso,United States,GHCND:US1NMDA0024,32.3844,-106.7217
2015-07-04,2023-04-23,"FAIRBANKS 5.7 N, AK US",Fairbanks,United States,GHCND:US1AKFN0015,64.9186,-147.6304
2016-11-28,2023-04-23,"FRESNO 7.2 NNE, CA US",Fresno,United States,GHCND:US1CAFR0026,36.87684,-119.74351
2011-02-08,2023-04-23,"BELLVILLE 0.4 NE, TX US",Houston,United States,GHCND:US1TXAS0004,29.9515,-96.254409
2006-02-16,2023-04-23,"NEW ROSS 2.0 E, IN US",Indianapolis,United States,GHCND:US1INBN0002,39.96088,-86.67617
2008-01-22,2023-04-23,"GAINESVILLE 3.8 W, FL US",Jacksonville,United States,GHCND:US1FLAL0010,29.680193,-82.398823
2017-01-22,2023-04-23,"BALDWIN CITY 4.6 NNE, KS US",Kansas City,United States,GHCND:US1KSDG0057,38.8395919799805,-95.1572494506836
2007-03-03,2023-04-23,"LAS VEGAS 7.8 SW, NV US",Las Vegas,United States,GHCND:US1NVCK0007,36.097164,-115.264185
1994-11-29,2023-04-24,"HAVASU ARIZONA, AZ US",Lake Havasu City,United States,GHCND:USR0000AHAV,34.7872,-114.5617
2009-02-23,2023-04-23,"WHITTIER 2.9 WNW, CA US",Los Angeles,United States,GHCND:US1CALA0010,33.986232,-118.066418
2008-03-18,2023-04-23,"JEFFERSONVILLE 0.8 NW, IN US",Louisville,United States,GHCND:US1INCK0018,38.309792,-85.73601
2022-01-22,2023-04-23,"WYNNE 1.3 ENE, AR US",Memphis,United States,GHCND:US1ARCS0005,35.239,-90.768
2007-10-09,2023-04-22,"POMPANO BEACH HIGHLANDS 0.7 E, FL US",Miami,United States,GHCND:US1FLBW0007,26.286,-80.103
2007-06-27,2023-04-23,"WINTHROP HARBOR 0.2 SSE, IL US",Milwaukee,United States,GHCND:US1ILLK0023,42.477345,-87.825977
2010-03-21,2023-04-23,"EAST BETHEL 3.1 NE, MN US",Minneapolis,United States,GHCND:US1MNAA0005,45.377969,-93.15589
2008-01-09,2023-04-23,"SCOTTSVILLE 4.9 NE, KY US",Nashville,United States,GHCND:US1KYAL0011,36.880467,-86.171668
2018-05-04,2023-04-23,"METAIRIE 2.8 ENE, LA US",New Orleans,United States,GHCND:US1LAJF0014,30.01422,-90.13431
2009-06-25,2023-04-23,"NEW CANAAN 1.9 ENE, CT US",New York City,United States,GHCND:US1CTFR0003,41.148602,-73.459089
2006-07-02,2023-04-23,"MUSTANG 0.2 SE, OK US",Oklahoma City,United States,GHCND:US1OKCN0001,35.390641,-97.720575
2007-08-31,2023-04-23,"PLATTSMOUTH 1.4 SW, NE US",Omaha,United States,GHCND:US10cass001,40.9946,-95.8976
2008-10-09,2023-04-23,"HEMET 4.1 ENE, CA US",Palm Springs,United States,GHCND:US1CARV0005,33.7527,-116.9196
2009-08-22,2023-04-23,"NEWARK 5.3 N, DE US",Philadelphia,United States,GHCND:US1DENC0001,39.753672,-75.751913
1998-06-17,2023-04-23,"SCOTTSDALE 2.3 NE, AZ US",Phoenix,United States,GHCND:US1AZMR0016,33.709972,-111.841463
2005-12-03,2023-04-23,"BRIDGEVILLE 1.4 SW, PA US",Pittsburgh,United States,GHCND:US1PAAL0001,40.341739,-80.122944
2008-01-01,2023-04-23,"WARREN 0.4 SW, OR US",Portland (OR),United States,GHCND:US1ORCB0009,45.81551,-122.85659
2017-08-11,2023-04-23,"CONCORD 2.1 SE, CA US",Sacramento,United States,GHCND:US1CACC0037,37.95328,-121.97117
2008-06-30,2023-04-23,"BOUNTIFUL 0.8 SE, UT US",Salt Lake City,United States,GHCND:US1UTDV0007,40.869345,-111.851966
2007-08-17,2023-04-23,"POTEET 4.1 ENE, TX US",San Antonio,United States,GHCND:US1TXAT0001,29.065423,-98.515984
2011-10-24,2023-04-23,"MISSION VIEJO 3.5 SSE K6WTA, CA US",San Diego,United States,GHCND:US1CAOR0026,33.5633399,-117.639429
2009-06-01,2023-04-23,"CASTRO VALLEY 0.4 NNE, CA US",San Francisco,United States,GHCND:US1CAAL0003,37.716904,-122.058526
2009-06-01,2023-04-23,"CASTRO VALLEY 0.4 NNE, CA US",San Jose,United States,GHCND:US1CAAL0003,37.716904,-122.058526
2008-11-18,2023-04-23,"FREELAND 2.1 W, WA US",Seattle,United States,GHCND:US1WAIS0005,48.014477,-122.584084
2020-04-09,2023-04-23,"HARDIN 3.9 S, IL US",St. Louis,United States,GHCND:US1ILCH0002,39.100445,-90.617086
2007-10-06,2023-04-23,"PLANT CITY 6.5 NW, FL US",Tampa,United States,GHCND:US1FLHB0001,28.066173,-82.209836
2009-08-31,2023-04-23,"SIERRA VISTA 0.4 ESE, AZ US",Tucson,United States,GHCND:US1AZCH0003,31.56396,-110.316334
2015-04-04,2023-04-23,"POINT HARBOR 0.2 WSW, NC US",Virginia Beach,United States,GHCND:US1NCCC0010,36.078571,-75.797325
2011-06-15,2023-04-23,"WASHINGTON 5.1 NW, DC US","Washington, D.C.",United States,GHCND:US1DCDC0014,38.958091,-77.08173
2011-06-06,2023-04-23,"TOWANDA 4.9 NNE, KS US",Wichita,United States,GHCND:US1KSBU0017,37.864666,-96.968797
2005-06-28,2023-04-15,"PORT WAKEFIELD PAREORA, AS",Adelaide,Australia,GHCND:ASN00021063,-34.1564,138.1827
1941-11-01,2023-04-23,"ALICE SPRINGS AIRPORT, AS",Alice Springs,Australia,GHCND:ASN00015590,-23.7951,133.889
1941-08-25,2023-04-15,"AMBERLEY AMO, AS",Brisbane,Australia,GHCND:ASN00040004,-27.6297,152.7111
1916-01-01,2023-04-12,"LORINNA, AS",Burnie,Australia,GHCND:ASN00091055,-41.5406,146.1364
1882-06-01,2023-04-23,"CAIRNS POST OFFICE, AS",Cairns,Australia,GHCND:ASN00031010,-16.9333,145.7833
1927-06-01,2023-04-23,"CANBERRA FORESTRY, AS",Canberra,Australia,GHCND:ASN00070015,-35.3,149.1
1972-05-01,2023-04-15,"KARRATHA AERO, AS",Dampier,Australia,GHCND:ASN00004083,-20.7097,116.7742
1941-02-02,2023-04-23,"DARWIN AIRPORT COMPARISON, AS",Darwin,Australia,GHCND:ASN00014040,-12.4227,130.8844
1918-06-01,2023-04-15,"BREAM CREEK STROUD, AS",Hobart,Australia,GHCND:ASN00092005,-42.8122,147.8289
1939-07-01,2023-04-15,"DUNORLAN SHARMANS ROAD, AS",Launceston,Australia,GHCND:ASN00091029,-41.4978,146.535
2000-12-01,2023-04-15,"TOLMIE MOUNT TABLETOP REPEATE, AS",Melbourne,Australia,GHCND:ASN00082142,-36.9461,146.2197
1944-05-01,2023-04-23,"PERTH AIRPORT, AS",Perth,Australia,GHCND:ASN00009021,-31.9275,115.9764
1862-01-01,2023-04-15,"NEWCASTLE NOBBYS SIGNAL STATIO, AS",Sydney,Australia,GHCND:ASN00061055,-32.9185,151.7985
1965-05-03,2023-04-23,"ISLA DE PASCUA, CI",Hanga Roa,Chile,GHCND:CI000085469,-27.167,-109.433
1973-01-01,2023-04-23,"NAUSORI INTERNATIONAL, FJ",Suva,Fiji,GHCND:FJM00091683,-18.043,178.559
1994-08-02,2023-04-23,"AUCKLAND AERO AWS, NZ",Auckland,New Zealand,GHCND:NZM00093110,-37,174.8
1954-03-02,2023-04-23,"CHRISTCHURCH INTERNATIONAL, NZ",Christchurch,New Zealand,GHCND:NZM00093781,-43.489,172.532
1972-01-01,2023-04-23,"PARAPARAUMU AWS, NZ",Wellington,New Zealand,GHCND:NZ000093417,-40.9,174.983
1970-01-01,2023-04-23,"PORT MORESBY W.O., PP",Port Moresby,Papua New Guinea,GHCND:PP000092035,-9.383,147.217
1949-12-19,2023-04-23,HONIARA,Honiara,Solomon Islands,GHCND:BP000091517,-9.417,159.967
2015-10-29,2023-04-23,"HONOLULU 2.0 SW, HI US",Honolulu,United States,GHCND:US1HIHN0023,21.300423,-157.829327
1985-07-01,2023-04-23,"PORT VILA BAUERFIELD, NH",Port Vila,Vanuatu,GHCND:NHM00091557,-17.699,168.32
1956-02-02,2023-04-23,"BAHIA BLANCA AERO, AR",Bahía Blanca,Argentina,GHCND:AR000877500,-38.733,-62.167
1957-06-30,2023-04-23,"SAN CARLOS DE BARILOCHE, AR",Bariloche,Argentina,GHCND:ARM00087765,-41.151,-71.158
1908-09-02,2023-04-23,"BUENOS AIRES OBSERV, AR",Buenos Aires,Argentina,GHCND:AR000875850,-34.583,-58.483
1956-02-01,2023-04-23,"COMODORO RIVADAVIA, AR",Comodoro Rivadavia,Argentina,GHCND:AR000087860,-45.783,-67.5
1956-02-02,2023-04-23,"CORDOBA AERO, AR",Córdoba,Argentina,GHCND:AR000087344,-31.317,-64.217
1956-02-01,2023-04-23,"MAR DEL PLATA AERO, AR",Mar del Plata,Argentina,GHCND:AR000087692,-37.933,-57.583
1957-06-30,2023-04-23,"MENDOZA AERO, AR",Mendoza,Argentina,GHCND:AR000087418,-32.833,-68.783
1956-08-01,2023-04-23,"NEUQUEN AERO, AR",Neuquén,Argentina,GHCND:AR000087715,-38.95,-68.133
1960-01-01,2023-04-23,"RESISTENCIA AERO, AR",Resistencia,Argentina,GHCND:AR000087155,-27.45,-59.05
1956-02-01,2023-04-23,"RIO GALLEGOS AERO, AR",Río Gallegos,Argentina,GHCND:AR000087925,-51.617,-69.283
1965-03-08,2023-04-23,"ROSARIO, AR",Rosario,Argentina,GHCND:ARM00087480,-32.904,-60.785
1956-04-01,2023-04-23,"LA QUIACA OBSERVATO, AR",Salta,Argentina,GHCND:AR000087007,-22.1,-65.6
1956-02-01,2023-04-23,"LA RIOJA AERO., AR",San Juan,Argentina,GHCND:AR000087217,-29.383,-66.817
1981-11-01,2023-04-23,"TENIENTE BENJAMIN MATIENZO, AR",San Miguel de Tucumán,Argentina,GHCND:ARM00087121,-26.841,-65.105
1956-02-01,2023-04-23,"SANTIAGO DEL ESTERO, AR",Santiago del Estero,Argentina,GHCND:AR000087129,-27.767,-64.3
1957-06-30,2023-04-23,"USHUAIA MALVINAS ARGENTINAS, AR",Ushuaia,Argentina,GHCND:ARM00087938,-54.843,-68.296
1973-01-01,2023-04-23,"GOBERNADOR CASTELLO, AR",Viedma,Argentina,GHCND:ARM00087791,-40.869,-63
1942-06-01,2023-04-23,"EL ALTO INTERNATIONAL, BL",La Paz,Bolivia,GHCND:BLM00085201,-16.513,-68.192
1984-07-06,2023-04-23,"VIRU VIRU INTERNATIONAL, BL",Santa Cruz de la Sierra,Bolivia,GHCND:BLM00085244,-17.645,-63.135
1973-08-18,2023-03-31,"CAPITAN NICOLAS ROJAS, BL",Sucre,Bolivia,GHCND:BLM00085293,-19.543,-65.724
1942-10-01,2023-04-23,"VAL DE CANS INTERNATIONAL, BR",Belém,Brazil,GHCND:BRM00082193,-1.379,-48.476
1941-01-01,2023-04-23,"LAGOA SANTA AIRPORT, BR",Belo Horizonte,Brazil,GHCND:BR001943012,-19.65,-43.883
1967-04-15,2023-04-23,"MONTE CASEROS AERO, AR",Brasília,Brazil,GHCND:AR000000011,-30.267,-57.65
1930-08-01,2023-04-23,"GUARATINGUETA, BR",Campos do Jordão,Brazil,GHCND:BR002245032,-22.783,-45.2
1973-02-06,2023-04-23,"CURITIBA, BR",Curitiba,Brazil,GHCND:BR002549075,-25.417,-49.267
1927-09-24,1999-04-30,"ILHOTA JUSANTE, BR",Florianópolis,Brazil,GHCND:BR002648001,-26.92,-48.84
1962-09-01,2000-12-31,"UMARITUBA NOVA, BR",Fortaleza,Brazil,GHCND:BR000338014,-3.67,-38.98
1973-08-12,1999-05-31,"OURO VERDE DE GOIAS, BR",Goiânia,Brazil,GHCND:BR001649009,-16.23,-49.14
1974-08-01,1999-12-31,"CACHOEIRA MORENA, BR",Manaus,Brazil,GHCND:BR000259000,-2.11,-59.34
1977-10-02,2023-04-23,"CANOAS, BR",Porto Alegre,Brazil,GHCND:BRM00083967,-29.946,-51.144
1967-04-01,1999-12-31,"ENGENHO SITIO, BR",Recife,Brazil,GHCND:BR000735050,-7.97,-35.16
1967-06-01,1999-12-31,"MANUEL RIBEIRO, BR",Rio de Janeiro,Brazil,GHCND:BR002242010,-22.91,-42.73
1962-07-01,1999-12-31,"TIRIRICA, BR",Salvador,Brazil,GHCND:BR001238000,-12.57,-38.06
1941-01-01,1999-04-30,"LOMBA ALTA, BR",São Joaquim,Brazil,GHCND:BR002749007,-27.73,-49.38
1952-08-08,2000-06-30,"JUQUITIBA II, BR",São Paulo,Brazil,GHCND:BR002347062,-23.94,-47.1
1947-08-01,2000-12-31,"SAO JOAO DE PETROPOLIS, BR",Vitória,Brazil,GHCND:BR001940001,-19.81,-40.68
1946-11-13,2023-04-23,"ANTOFAGASTA, CI",Antofagasta,Chile,GHCND:CI000085442,-23.433,-70.45
1973-01-03,2023-04-23,"CARRIEL SUR INTERNATIONAL, CI",Concepción,Chile,GHCND:CIM00085682,-36.773,-73.063
1957-07-01,2023-04-23,"LA SERENA, CI",La Serena,Chile,GHCND:CI000085488,-29.917,-71.2
1963-07-02,2023-04-23,"PUNTA ARENAS, CI",Punta Arenas,Chile,GHCND:CI000085934,-53,-70.967
1973-01-01,2023-04-23,"ARTURO MERINO BENITEZ INTERNATIONAL, CI",Santiago,Chile,GHCND:CIM00085574,-33.393,-70.786
1941-03-02,2023-04-23,"BOGOTA ELDORADO, CO",Bogotá,Colombia,GHCND:CO000080222,4.701,-74.15
1941-05-02,2023-04-23,"ERNESTO CORTISSOZ, CO",Barranquilla,Colombia,GHCND:COM00080028,10.89,-74.781
1958-01-02,2023-04-23,"OLAYA HERRERA, CO",Medellín,Colombia,GHCND:COM00080110,6.22,-75.591
1969-08-20,2023-04-23,"ALFONSO LOPEZ PUMAREJO, CO",Valledupar,Colombia,GHCND:COM00080036,10.435,-73.25
1961-01-01,1986-12-31,"ISABEL MARIA, EC",Guayaquil,Ecuador,GHCND:EC000000036,-1.83,-79.56
2005-09-20,2023-04-22,"IZOBAMBA, EC",Quito,Ecuador,GHCND:ECM00084088,-0.35,-78.55
2014-05-13,2023-04-23,"MOUNT KENT, FK",Stanley,Falkland Islands,GHCND:FKM00088881,-51.667,-58.1
1943-06-01,2023-04-23,"ROCHAMBEAU, FR",Cayenne,French Guiana,GHCND:FG000081405,4.833,-52.367
1941-08-25,2023-04-23,"GEORGETOWN, GY",Georgetown,Guyana,GHCND:GYM00081001,6.8,-58.15
1949-01-02,2023-04-23,"SILVIO PETTIROSSI INTERNATIONAL, PA",Asunción,Paraguay,GHCND:PAM00086218,-25.24,-57.519
1963-01-03,2023-04-23,"TENIENTE ALEJANDRO VELASCO AS, PE",Cusco,Peru,GHCND:PEM00084686,-13.536,-71.939
1963-01-03,2023-04-23,"JORGE CHAVEZ INTERNATIONAL, PE",Lima,Peru,GHCND:PEM00084628,-12.022,-77.114
1942-11-01,2023-04-23,"CAPITAN MONTES, PE",Piura,Peru,GHCND:PEM00084390,-4.577,-81.254
1942-09-01,2023-04-23,"JOHAN A PENGEL INTERNATIONAL, NS",Paramaribo,Suriname,GHCND:NSM00081225,5.453,-55.188
1957-06-30,2023-04-23,"CARRASCO INTERNATIONAL, UY",Montevideo,Uruguay,GHCND:UYM00086580,-34.838,-56.031
1967-01-01,2023-04-23,"SAN JUAN DE LOS MOR, VE",Caracas,Venezuela,GHCND:VE000002417,9.917,-67.333
1965-09-13,2023-04-23,"TOUAT CHEIKH SIDI MOHAMED BEL, AG",Reggane,Algeria,GHCND:AGM00060620,27.838,-0.186
1945-01-01,2023-04-23,"MARADI, NG",Makurdi,Nigeria,GHCND:NG000001080,13.47,7.08
1955-01-01,1986-12-30,"JINJA, UG",Kampala,Uganda,GHCND:UG000063682,0.45,33.183
1955-01-01,1986-12-30,"JINJA, UG",Entebbe,Uganda,GHCND:UG000063682,0.45,33.183
1979-07-30,2023-04-23,"ALOR MALI KALABAHI, ID",Dili,East Timor,GHCND:IDM00097320,-8.217,124.567
1855-02-01,2023-04-23,"WIEN, AU",Bratislava,Slovakia,GHCND:AU000005901,48.2331,16.35
1968-06-01,1996-12-31,"JADACAQUIVA, VE",Oranjestad,Aruba,GHCND:VE000000117,11.9,-70.1
1949-11-01,2005-12-31,"TARA HILLS, NZ",Alexandra,New Zealand,GHCND:NZ000937470,-44.517,169.9
1994-08-02,2023-04-23,"AUCKLAND AERO AWS, NZ",Hamilton,New Zealand,GHCND:NZM00093110,-37,174.8
1949-11-01,2005-12-31,"TARA HILLS, NZ",Lake Tekapo,New Zealand,GHCND:NZ000937470,-44.517,169.9
1972-01-01,2023-04-23,"PARAPARAUMU AWS, NZ",Palmerston North,New Zealand,GHCND:NZ000093417,-40.9,174.983
1952-04-01,1987-12-31,"JIGGIGA, ET",Hargeisa,Somalia,GHCND:ET000063473,9.333,42.717
1949-11-01,2023-04-23,"KUT AL HAI, IZ",Baghdad,Iraq,GHCND:IZ000040665,32.17,46.05
1949-11-01,2023-04-23,"UROMIYEH, IR",Erbil,Iraq,GHCND:IRM00040712,37.668,45.069
1957-01-01,1990-07-09,"YONAGUNI JIMA, JA",Taipei,Taiwan,GHCND:JA000047912,24.467,123.017
1983-01-01,2023-04-23,"KING ABDULLAH BIN ABDULAZIZ, SA",Sana'a,Yemen,GHCND:SAM00041140,16.901,42.586
1949-11-01,2005-12-31,"TARA HILLS, NZ",Dunedin,New Zealand,GHCND:NZ000937470,-44.517,169.9
1962-02-01,2023-04-23,"GISBORNE AERODROME, NZ",Napier,New Zealand,GHCND:NZ000093292,-38.65,177.983
1994-08-02,2023-04-23,"AUCKLAND AERO AWS, NZ",Tauranga,New Zealand,GHCND:NZM00093110,-37,174.8
1948-01-01,2023-04-23,"DOUALA, CM",Yaoundé,Cameroon,GHCND:CM000004910,4.02,9.72
1947-01-01,1987-12-31,ASSAB,Aden,Yemen,GHCND:ER000063043,13.067,42.717
1966-08-01,1988-12-31,"GODE, ET",Mogadishu,Somalia,GHCND:ET000063478,5.9,43.583